OBJECT_NAME,OBJECT_ID,EPOCH,MEAN_MOTION,ECCENTRICITY,INCLINATION,RA_OF_ASC_NODE,ARG_OF_PERICENTER,MEAN_ANOMALY,EPHEMERIS_TYPE,CLASSIFICATION_TYPE,NORAD_CAT_ID,ELEMENT_SET_NO,REV_AT_EPOCH,BSTAR,MEAN_MOTION_DOT,MEAN_MOTION_DDOT
ONEWEB-0275,2021-060AC,2026-06-03T15:01:24.392064,13.16592181,.0001976,87.9107,231.4679,95.9619,264.1738,0,U,48993,999,23777,-.65798E-3,-.239E-5,0
ONEWEB-0276,2021-060AD,2026-06-03T13:59:50.351424,13.16593170,.00020377,87.9103,231.4762,94.0246,266.1118,0,U,48994,999,23778,.2087044E-3,.93E-6,0
ONEWEB-0277,2021-060AE,2026-06-03T14:18:04.928832,13.16593127,.00018,87.9103,231.4830,97.2455,262.8881,0,U,48995,999,23777,.3899742E-3,.162E-5,0
ONEWEB-0278,2021-060AF,2026-06-03T14:04:23.729664,13.16595848,.00022858,87.9107,231.4752,108.2390,251.8990,0,U,48996,999,23790,.27213514E-3,.117E-5,0
ONEWEB-0279,2021-060AG,2026-06-03T14:15:48.367584,13.16593610,.00018295,87.9107,231.4708,95.1442,264.9898,0,U,48997,999,23783,.13713236E-3,.65E-6,0
ONEWEB-0280,2021-060AH,2026-06-03T14:37:26.410944,13.16592565,.00019271,87.9105,231.4718,109.8641,250.2698,0,U,48998,999,23777,-.2860212E-5,.12E-6,0
ONEWEB-0281,2021-060AJ,2026-06-03T14:45:26.908128,13.16594148,.0002095,87.9107,231.4659,100.1319,260.0049,0,U,48999,999,23784,-.24012E-4,.4E-7,0
ONEWEB-0282,2021-060AK,2026-06-03T15:28:45.020064,13.16595527,.0001896,87.9101,231.4683,103.0117,257.1226,0,U,49000,999,23782,-.18983E-3,-.6E-6,0
ONEWEB-0283,2021-060AL,2026-06-03T15:12:47.568960,13.16593070,.0001916,87.9103,231.4705,96.3875,263.7474,0,U,49001,999,23783,-.10039E-3,-.26E-6,0
ONEWEB-0284,2021-060AM,2026-06-03T15:03:40.960224,13.16593477,.0002092,87.9104,231.4650,108.9652,251.1706,0,U,49002,999,23781,-.10734E-3,-.28E-6,0
ONEWEB-0285,2021-075A,2026-06-04T00:34:08.620896,13.12441927,.0001728,87.8950,353.2801,88.5445,271.5882,0,U,49075,999,23348,-.21722E-3,-.65E-6,0
ONEWEB-0286,2021-075B,2026-06-04T00:08:20.033088,13.12442268,.0002,87.8942,353.3021,88.8219,271.3139,0,U,49076,999,23283,.12089E-2,.448E-5,0
ONEWEB-0287,2021-075C,2026-06-04T00:42:45.343872,13.17647753,.0002271,87.9143,8.4836,91.5254,268.6138,0,U,49077,999,23189,.16764E-3,.78E-6,0
ONEWEB-0288,2021-075D,2026-06-04T01:24:09.259200,13.12443949,.0001962,87.8949,353.2666,99.4174,260.7176,0,U,49078,999,23346,.17332E-3,.75E-6,0
ONEWEB-0289,2021-075E,2026-06-04T01:38:26.926944,13.17650188,.0001631,87.9151,8.4921,97.2968,262.8349,0,U,49079,999,23247,.46592E-3,.194E-5,0
ONEWEB-0290,2021-075F,2026-06-04T00:59:46.166784,13.17650193,.0001483,87.9149,8.4689,100.9702,259.1597,0,U,49080,999,23188,.17062E-3,.79E-6,0
ONEWEB-0291,2021-075G,2026-06-04T00:37:53.812128,13.17647629,.0002049,87.9145,8.4802,98.5396,261.5967,0,U,49081,999,23187,-.16637E-4,.6E-7,0
ONEWEB-0293,2021-075H,2026-06-04T01:14:19.959360,13.17651227,.0001713,87.9145,8.4785,89.2473,270.8855,0,U,49082,999,23190,.49559E-4,.32E-6,0
ONEWEB-0294,2021-075J,2026-06-04T01:33:55.490976,13.12444101,.0001655,87.8952,353.2686,100.5782,259.5533,0,U,49083,999,23285,.48701E-3,.188E-5,0
ONEWEB-0295,2021-075K,2026-06-04T01:13:07.228704,13.17650535,.0002041,87.9136,8.4836,97.2284,262.9079,0,U,49084,999,23186,-.85569E-3,-.319E-5,0
ONEWEB-0296,2021-075L,2026-06-04T01:04:37.956000,13.12442268,.000214,87.8952,353.2806,87.7525,272.3848,0,U,49085,999,23285,-.14634E-2,-.514E-5,0
ONEWEB-0297,2021-075M,2026-06-03T23:58:46.701696,13.12443420,.0001894,87.8939,353.3015,91.1937,268.9409,0,U,49086,999,23345,.12148E-2,.45E-5,0
ONEWEB-0298,2021-075N,2026-06-04T01:19:26.069376,13.17650371,.0001956,87.9142,8.4796,90.6254,269.5102,0,U,49087,999,23189,.61996E-3,.254E-5,0
ONEWEB-0299,2021-075P,2026-06-04T01:21:38.912832,13.17650797,.0001971,87.9154,8.4585,87.5483,272.5874,0,U,49088,999,23187,.36592E-4,.27E-6,0
ONEWEB-0300,2021-075Q,2026-06-04T01:37:34.872672,13.12444430,.0002037,87.8954,353.2656,83.1466,276.9894,0,U,49089,999,23348,.75202E-3,.283E-5,0
ONEWEB-0301,2021-075R,2026-06-04T01:14:23.861184,13.12444802,.0001846,87.8949,353.2676,78.5900,281.5436,0,U,49090,999,23284,-.53186E-3,-.179E-5,0
ONEWEB-0302,2021-075S,2026-06-04T00:54:52.462080,13.12443246,.0001556,87.8942,353.2804,90.9708,269.1599,0,U,49091,999,23282,-.70411E-3,-.241E-5,0
ONEWEB-0304,2021-075T,2026-06-04T00:45:11.137824,13.17647610,.0001989,87.9140,8.4873,87.5142,272.6217,0,U,49092,999,23184,.81033E-4,.44E-6,0
ONEWEB-0305,2021-075U,2026-06-04T00:35:28.058784,13.17647849,.0002216,87.9150,8.4725,91.1589,268.9796,0,U,49093,999,23187,.12386E-3,.61E-6,0
ONEWEB-0308,2021-075V,2026-06-04T00:45:06.995808,13.12442100,.0001773,87.8952,353.2753,87.8839,272.2492,0,U,49094,999,23283,-.88401E-3,-.305E-5,0
ONEWEB-0309,2021-075W,2026-06-04T00:40:18.822432,13.17648626,.0001625,87.9144,8.4818,98.6306,261.5009,0,U,49095,999,23184,-.1013E-3,-.26E-6,0
